no,name,lat,lon,要素,住所,説明,image,nimage
1,陵北大橋からの眺望,35.681088,139.272404,八王子景観100選No.1、八王子八十八景No.31,下恩方町,北浅川と山入川の合流点近くに架かる陵北大橋からの眺めで、多彩な表情を見せる山並みの景観が望めます。,https://code4fukui.github.io/hachioji-keikan100/1-1.jpg,2
2,浅川の眺望,35.668045,139.315773,八王子景観100選No.2,中野上町４丁目,市中央を流れる浅川の雄大な眺めが望めます。,https://code4fukui.github.io/hachioji-keikan100/2-1.jpg,2
3,八王子城跡からの眺望,35.652811,139.251935,八王子景観100選No.3,元八王子町３丁目2664ー2,関東平野の西端に位置する八王子城跡から、関東平野を一望できます。山城の歴史や広大な眺めを楽しむことができます。,https://code4fukui.github.io/hachioji-keikan100/3-1.jpg,2
4,高尾山からの眺望,35.625411,139.243738,八王子景観100選No.4,高尾町,標高か599ｍの山頂から市街地や富士山を眺めることができ、「関東の富士見百景」に選定されています。,https://code4fukui.github.io/hachioji-keikan100/4-1.jpg,2
5,陣馬山からの眺望,35.652098,139.166502,八王子景観100選No.5,上恩方町,標高855ｍで、頂上からは、東に市内のまち並み、西に富士山を望むなど、360度の大パノラマが楽しめます。,https://code4fukui.github.io/hachioji-keikan100/5-1.jpg,2
6,堀之内沖ノ谷戸公園からの眺望,35.635259,139.400155,八王子景観100選No.6,堀之内２５３,多摩ニュータウン開発以前の地形を活かして高台につくられた公園で、市街地や遠く丹沢山系など、様々な眺めが楽しめます。,https://code4fukui.github.io/hachioji-keikan100/6-1.jpg,1
7,片倉つどいの森公園の広場と眺望,35.637397,139.330863,八王子景観100選No.7,片倉町３５０６,緑に囲まれた広大な公園で、山並みを背景としたまちなみを見渡すことができ、遠くには富士山を眺めることができます。,https://code4fukui.github.io/hachioji-keikan100/7-1.jpg,1
8,滝山公園のサクラと眺望,35.7011,139.330931,八王子景観100選No.8、八王子八十八景No.12,高月町,昭和46（1971）に地域住民と行政等によりサクラを植樹し、都内有数のサクラの名所地となりました。眼下に広がるまちなみや多摩川など、様々な景観が楽しめます。,https://code4fukui.github.io/hachioji-keikan100/8-1.jpg,4
9,大平公園からの眺望,35.607087,139.380941,八王子景観100選No.9,南大沢３丁目１１,多摩ニュータウン内にあり、池や見晴らしの良い休憩所から住宅街を見渡せる眺望です。,https://code4fukui.github.io/hachioji-keikan100/9-1.jpg,1
10,上柚木公園からの眺望,35.619988,139.371987,八王子景観100選No.10,上柚木２丁目,多摩ニュータウン内に位置し、木立ち越しに中高層の建築物群が望めます。,https://code4fukui.github.io/hachioji-keikan100/10-1.jpg,1
11,浅川のサクラ,35.664189,139.341079,八王子景観100選No.11、八王子八十八景No.22,元横山町１丁目１１ー５,浅川に沿ってサクラが植えられ、春になると沿川がサクラ色に染まります。サクラ並木の淡い色彩は多くの市民に親しまれています。,https://code4fukui.github.io/hachioji-keikan100/11-1.jpg,1
12,大栗川の沿川風景,35.627242,139.398208,八王子景観100選No.12,堀之内,周辺の住宅地と大栗川が一体となって開放的で緑豊かな風景が広がっています。,https://code4fukui.github.io/hachioji-keikan100/12-1.jpg,2
13,松竹橋周辺の沿川風景,35.668807,139.253495,八王子景観100選No.13,下恩方町,河川の護岸は手入れの行き届いた玉石積み等でつくられ、松竹橋からは里山の原風景が感じられます。,https://code4fukui.github.io/hachioji-keikan100/13-1.jpg,1
14,多摩大橋付近の風景,35.691981,139.372259,八王子景観100選No.14,小宮町,多摩大橋周辺からは多摩川の雄大な景観が開けています。また、多摩大橋の大きなアーチがひときわ目を引くランドマークとなっています。,https://code4fukui.github.io/hachioji-keikan100/14-1.jpg,2
15,南浅川の沿川風景,35.639601,139.269625,八王子景観100選No.15,下恩方町,南浅川沿川には、サクラ並木やコスモスなど多種多様な木々や花々があり、周囲の山並みへの眺めもあわせて、四季折々の多彩な表情が楽しめます。,https://code4fukui.github.io/hachioji-keikan100/15-1.jpg,1
16,南浅川の鯉のぼり,35.650082,139.296308,八王子景観100選No.16、八王子八十八景No.61,東浅川町,長房ふれあい端午まつりで、南浅川をはさんで千匹の鯉のぼりが泳ぎます。市民の心にも強く残る、緑や水辺を背景とした色鮮やかな景観です。,https://code4fukui.github.io/hachioji-keikan100/16-1.jpg,1
17,南浅川橋周辺の風景,35.648941,139.291467,八王子景観100選No.17、八王子八十八景No.30,長房町,武蔵陵墓地への参道であり、威厳のある橋梁のデザインや、周囲の南浅川や陵南公園など様々な景観を眺め、楽しむことができます。,https://code4fukui.github.io/hachioji-keikan100/17-1.jpg,3
18,北浅川の渓谷,35.685299,139.280859,八王子景観100選No.18、八王子八十八景No.24,上壱分方町７１ー１,大小の自然石がつくる渓谷の風景は、川の荒々しい表情をみせてくれます。市街地の近くでこのような渓谷を眺めらるのは、八王子の魅力の一つになっています。,https://code4fukui.github.io/hachioji-keikan100/18-1.jpg,2
19,歳時の舞台となる甲州街道,35.651474,139.300233,八王子景観100選No.19、八王子八十八景No.80、景観重要公共施設,並木町他,八王子まつりやいちょう祭りをはじめ、様々な行事イベントが行われ、市民にしたしまれている。,https://code4fukui.github.io/hachioji-keikan100/19-1.jpg,3
20,甲州街道のイチョウ並木,35.659959,139.316371,八王子景観100選No.20,千人町１丁目１,大正天皇の御陵造営を記念して昭和4年（1929）に植えられたイチョウ並木です。,https://code4fukui.github.io/hachioji-keikan100/20-1.jpg,1
21,寺田町の並木道,35.61741,139.296731,八王子景観100選No.21,寺田町,並木は高く、緑に覆われたような景観をつくり出しています。,https://code4fukui.github.io/hachioji-keikan100/21-1.jpg,1
22,並木のある高尾街道,35.649913,139.276685,八王子景観100選No.22,元八王子３丁目他,ケヤキ並木に覆われた緑豊かな道路で、心地よい景観をつくりだしています。,https://code4fukui.github.io/hachioji-keikan100/22-1.jpg,1
23,上恩方町の陣馬街道の沿道風景,35.670513,139.233055,八王子景観100選No.23,上恩方町,陣馬街道は古くから多くの往来があり、沿道には、長屋門のある住宅等が立地し、里山の風景や歴史を感じさせる風景が広がる地域です。,https://code4fukui.github.io/hachioji-keikan100/23-1.jpg,2
24,富士森公園の花と木々,35.650921,139.322732,八王子景観100選No.24,台町２丁目２,野球場、テニスコートなどがある市民の憩いの場で、四季を通じて多くの人が訪れ、人々の触れ合いや賑わいのある景観が生まれています。,https://code4fukui.github.io/hachioji-keikan100/24-1.jpg,3
25,小宮公園の雑木林と大谷弁天池,35.673442,139.340673,八王子景観100選No.25,暁町２丁目４１ー６,自然環境を活かした公園の一つで、園内には沢が流れています。雑木林や湧水の中を木道を歩いて散策することができます。,https://code4fukui.github.io/hachioji-keikan100/25-1.jpg,2
26,緑豊かな観栖寺台公園,35.670071,139.264366,八王子景観100選No.26,西寺方町１３６ー９,小田野城の入り口ちかくにある緑豊かな公園で、遠くに山並みが見えます。,https://code4fukui.github.io/hachioji-keikan100/26-1.jpg,1
27,緑豊かな久保山公園,35.68545,139.355542,八王子景観100選No.27,久保山町２丁目４８,自然を残した公園で緑豊かな場所です。まちの中で自然を体験でき、暮らしに潤いを与える景観の一つです。,https://code4fukui.github.io/hachioji-keikan100/27-1.jpg,1
28,鑓水の谷戸風景,35.621246,139.35446,八王子景観100選No.28,鑓水,鑓水地区には、里山や自然が残り、多摩ニュータウンの近くでも、どこか懐かしい昔ながらの谷戸の風景が見られます。,https://code4fukui.github.io/hachioji-keikan100/28-1.jpg,1
29,里山文化を継承する長池公園,35.61147,139.392704,八王子景観100選No.29、景観重要公共施設,別所２丁目５８,雑木林と長池・築池のため池を活かした自然豊かな公園で、里山の文化を継承していくために長く活動が行われています。,https://code4fukui.github.io/hachioji-keikan100/29-1.jpg,3
30,長沼公園の雑木林,35.638298,139.368519,八王子景観100選No.30,長沼町,丘陵地にある雑木林に覆われた公園で、園路が整備されており、手軽な山歩きが楽しめます。,https://code4fukui.github.io/hachioji-keikan100/30-1.jpg,1
31,大和田町の芳林閣,35.659911,139.353604,八王子景観100選No.31,大和田町３丁目１１ー２０,多種多様な樹木が育つ日本庭園と戦前からの建築物があり「全国都市緑化はちおうじフェア」のスポット会場にもなった。,https://code4fukui.github.io/hachioji-keikan100/31-1.jpg,1
32,平山城址公園の雑木林,35.639851,139.382841,八王子景観100選No.32,堀之内,日当たりのよい公園で、クヌギやコナラの雑木林が広がっています。,https://code4fukui.github.io/hachioji-keikan100/32-1.jpg,1
33,丘陵地形が残る別所公園,35.616535,139.39905,八王子景観100選No.33,別所２丁目３３ー２,多摩ニュータウンの計画の一環で整備された公園で、緑の多いなだらかな地形を活かしています。,https://code4fukui.github.io/hachioji-keikan100/33-1.jpg,1
34,ホタルが棲む宇津貫緑地,35.621297,139.330261,八王子景観100選No.34,七国１丁目１５,八王子ニュータウン開発以前からあった森林地をできる限り残した環境で、水辺にはホタルの生息もみられます。,https://code4fukui.github.io/hachioji-keikan100/34-1.jpg,1
35,丘陵地形が残る宇津貫公園,35.625142,139.324654,八王子景観100選No.35,七国６丁目１,開発以前の丘陵地形上につくられた公園で、周囲のまちなみを眺めることができます。,https://code4fukui.github.io/hachioji-keikan100/35-1.jpg,1
36,別所のせせらぎ緑道,35.615272,139.394157,八王子景観100選No.36,別所２丁目１２６ 多摩ニュータウン,水辺と緑地が融合した通りのデザインは、潤いのある住環境を形成しています。,https://code4fukui.github.io/hachioji-keikan100/36-1.jpg,3
37,叶谷榎池の湧水,35.672372,139.300093,八王子景観100選No.37,叶谷町,地域に潤いをもたらし、湧水の水辺と榎がシンボルとなって、地域の個性豊かな魅力をつくりだしています。,https://code4fukui.github.io/hachioji-keikan100/37-1.jpg,1
38,東京薬科大学の薬用植物園,35.637834,139.382476,八王子景観100選No.38、八王子八十八景No.74,堀之内１４３２ー１,都内で最も広い薬用植物園ですが、一般にも開放しています。,https://code4fukui.github.io/hachioji-keikan100/38-1.jpg,1
39,水辺豊かな清水公園,35.682239,139.312744,八王子景観100選No.39、八王子八十八景No.5,犬目町１４３ー２,川口川沿いに位置する公園で、雑木林や湧き水を利用した池、せせらぎなど、身近に自然を体験できる場所です。,https://code4fukui.github.io/hachioji-keikan100/39-1.jpg,1
40,自然と歴史が残る八王子城跡,35.652693,139.256429,八王子景観100選No.40、八王子八十八景No.51,元八王子町３丁目2664ー2,平成18年に「日本100名城」に選ばれ、曳橋の復元など戦国時代の雰囲気を体験できる景観が再現されています。,https://code4fukui.github.io/hachioji-keikan100/40-1.jpg,2
41,空堀が残る滝山城跡,35.7018,139.32816,八王子景観100選No.41,高月町,国史跡に指定されている滝山城跡は全国でも有数の中世城郭跡といわれており、山並みに囲まれた八王子ならではの歴史を語る貴重な景観の一つです。,https://code4fukui.github.io/hachioji-keikan100/41-1.jpg,3
42,裏高尾町の旧甲州街道の沿道風景,35.639534,139.250711,八王子景観100選No.42,裏高尾町１１１６,旧甲州街道の小仏峠越えのルートにあるまち並みで、山に囲まれた自然の沿道風景です。,https://code4fukui.github.io/hachioji-keikan100/42-1.jpg,2
43,東浅川町の旧甲州街道のまちなみ,35.646248,139.286173,八王子景観100選No.43,東浅川町,黒塀や街道沿いの水路敷きには水が流れ歴史を感じさせる景観です。,https://code4fukui.github.io/hachioji-keikan100/43-1.jpg,3
44,広園寺,35.647084,139.316661,八王子景観100選No.44、八王子八十八景No.39、特に景観上重要な都選定歴史的建造物等,山田町１５７７,1390年の創建で七堂伽藍の配置が、臨済宗の伝統を伝えています。そのたたずまい、規模は都内でも稀なもので境内一帯は東京都の史跡に指定されています。,https://code4fukui.github.io/hachioji-keikan100/44-1.jpg,3
45,永林寺,35.631292,139.382302,八王子景観100選No.45、八王子八十八景No.34,下柚木４,天文元年（1532）に創建された寺院で、緑に囲まれた厳かな雰囲気をよく残しています。,https://code4fukui.github.io/hachioji-keikan100/45-1.jpg,3
46,大塚八幡神社,35.638172,139.421346,八王子景観100選No.46,大塚５１５,9月の例大祭ではお囃子、神輿など様々な催しが行われ、多くの人々で賑わいます。,https://code4fukui.github.io/hachioji-keikan100/46-1.jpg,3
47,往時の面影が残る絹の道,35.621587,139.352107,八王子景観100選No.47、八王子八十八景No.37、景観重要公共施設,鑓水,幕末期から明治中期まで、八王子から横浜に輸出用生糸を運んでいた道のひとつで丘陵地を貫く形で、昔の面影を良く残しています。,https://code4fukui.github.io/hachioji-keikan100/47-1.jpg,1
48,諏訪町の諏訪神社,35.677667,139.289656,八王子景観100選No.48,諏訪町１,夏には、諏訪祭りやまんじゅう祭りと称される例大祭が行われ多くの人で賑わっています。,https://code4fukui.github.io/hachioji-keikan100/48-1.jpg,1
49,明神町の子安神社,35.659095,139.341307,八王子景観100選No.49、八王子八十八景No.42,明神町４丁目１０ー３,天平宝字3年(759年)創建と、奈良時代からの歴史があり、森と湧水地で名高かい場所です。,https://code4fukui.github.io/hachioji-keikan100/49-1.jpg,3
50,スギ並木と武蔵陵墓地,35.651143,139.281504,八王子景観100選No.50、八王子八十八景No.48,長房町１８３３,陵墓地内には北山杉が植えられ、大きく成長した並木は、荘厳で美しい並木道です。,https://code4fukui.github.io/hachioji-keikan100/50-1.jpg,3
51,大久保長安ゆかりの産千代稲荷神社,35.658826,139.324658,八王子景観100選No.51、八王子八十八景No.36,小門町８２,大久保長安は八王子に陣屋をおき、陣屋内の鬼門除の守護神として創立された神社です。,https://code4fukui.github.io/hachioji-keikan100/51-1.jpg,2
52,武蔵陵墓地外参道のケヤキ並木,35.649221,139.285805,八王子景観100選No.52、八王子八十八景No.13,長房町,高さが20ｍほどのケヤキが約160本植えられており、風格の感じられる並木道です。,https://code4fukui.github.io/hachioji-keikan100/52-1.jpg,1
53,真覚寺の湧水,35.648964,139.305521,八王子景観100選No.53,散田町５丁目１９,境内には心字池という湧水池があり、庭園や紫陽花などの花々を楽しむことができます。,https://code4fukui.github.io/hachioji-keikan100/53-1.jpg,1
54,高尾山薬王院,35.6259,139.250283,八王子景観100選No.54、八王子八十八景No.47,高尾町２１７７,天平16年（744）に開山し、信仰の霊山、都心近くの行楽地として知られる高尾山の象徴です。,https://code4fukui.github.io/hachioji-keikan100/54-1.jpg,1
55,高尾山のスギ並木,35.627115,139.25009,八王子景観100選No.55、八王子八十八景No.9,高尾町,高尾山薬王院参道に並ぶ樹齢700年ともいわれる杉の巨木で、自然の中でも厳かで風格の感じられる景観を成しています。,https://code4fukui.github.io/hachioji-keikan100/55-1.jpg,1
56,高尾山麓の風景,35.631201,139.268179,八王子景観100選No.56、景観重要公共施設,高尾町,信仰や行楽など多くの人々が訪れる高尾山の麓では、古くから多くの商店が建ち並んでいます。,https://code4fukui.github.io/hachioji-keikan100/56-1.jpg,2
57,とちの木デッキと駅前広場,35.65429,139.338407,八王子景観100選No.57,子安町４丁目８ー１４,JR八王子駅南口の２階とサザンスカイタワー八王子をつなぐペデストリアンデッキで、交流の場として賑わいのある空間となっています。,https://code4fukui.github.io/hachioji-keikan100/57-1.jpg,4
58,高尾山口駅の風景,35.63249,139.269921,八王子景観100選No.58,高尾町,木組み屋根で多摩産杉材を使い木材の温かみを感じさせて建物と周辺環境をなじませてる。,https://code4fukui.github.io/hachioji-keikan100/58-1.jpg,2
59,南大沢駅前のまちなみ,35.615293,139.378703,八王子景観100選No.59,南大沢２丁目,駅前の歩行者専用デッキでは広場を活用した店舗や環境づくりなど様々な取組みが行われ、多くの人々が活動しています。,https://code4fukui.github.io/hachioji-keikan100/59-1.jpg,3
60,歳時の舞台となる西放射線ユーロード,35.657893,139.336924,八王子景観100選No.60、八王子八十八景No.84、景観重要公共施設,中町他,八王子駅北口からのびる歩行者専用の道で、伝統的な祭りや現代的な行事・イベントなど、様々な活動が行われています。,https://code4fukui.github.io/hachioji-keikan100/60-1.jpg,4
61,中町の黒塀,35.658429,139.335111,八王子景観100選No.61,中町,多摩地域で唯一の花街で、地域の取組みによって風情あるまちの姿を今につたえています。,https://code4fukui.github.io/hachioji-keikan100/61-1.jpg,4
62,富士森公園の花火,35.651409,139.321237,八王子景観100選No.62,台町２丁目２ 富士森公園内,市内唯一の花火大会で、迫力ある色とりどりの花火が夜空を彩ります。市内広く様々なところから眺められ、市民に親しまれています。,https://code4fukui.github.io/hachioji-keikan100/62-1.jpg,2
63,高月町の田園風景,35.71363,139.321252,八王子景観100選No.63、八王子八十八景No.7,高月町,良質な水環境に恵まれた高月町の田園は都内最大級の規模を誇り、日本の原風景ともいえる魅力的な田園風景が広がっています。,https://code4fukui.github.io/hachioji-keikan100/63-1.jpg,2
64,戸吹スポーツ公園のスケートパーク,35.70078,139.287996,八王子景観100選No.64,戸吹町１７４６ー１,市北西部に位置する公園と各種運動施設があり、中でも公共のスケートパークは国内最大級の規模です。,https://code4fukui.github.io/hachioji-keikan100/64-1.jpg,2
65,里山が残る上川の里,35.707258,139.254605,八王子景観100選No.65,上川町,緑を大切にしたいと願う地域住民の働きかけにより、守られた丘陵地です。里山を守り再生する活動を通じて、独自の美しい上川の里の景観が育まれています。,https://code4fukui.github.io/hachioji-keikan100/65-1.jpg,3
66,夕やけ小やけふれあいの里の風景,35.668888,139.217004,八王子景観100選No.66、八王子八十八景No.20,上恩方町２０３０,童謡「夕焼小焼」のモデルである上恩方町のレクリエーション施設で、施設内では様々な行事・イベントが行われ、多くの人々に親しまれています。,https://code4fukui.github.io/hachioji-keikan100/66-1.jpg,2
67,裏高尾町の中央線の沿線風景,35.639446,139.238654,八王子景観100選No.67,裏高尾町,山間部を貫くように鉄道が走り、山肌のすぐ近くの線路やレンガ造りの橋など、懐かしさが感じられる景観です。,https://code4fukui.github.io/hachioji-keikan100/67-1.jpg,2
68,高尾山ケーブルカー付近の風景,35.631101,139.260684,八王子景観100選No.68,高尾町,ケーブルカーは日本一の急こう配で、周囲の景色の変化や高低差を楽しむことができます。,https://code4fukui.github.io/hachioji-keikan100/68-1.jpg,2
69,高尾駒木野庭園と四季の風景,35.640544,139.269942,八王子景観100選No.69,裏高尾町２６８ー１,敷地内に枯山水、露地、池泉回遊式庭園などがあり落ち着いた雰囲気の中、日本庭園を楽しむことができます。,https://code4fukui.github.io/hachioji-keikan100/69-1.jpg,5
70,エスフォルタアリーナと芝生広場,35.639743,139.292927,八王子景観100選No.70,狭間町１４５３ー１,挟間駅前に建設されたスポーツ施設で、芝生広場では、多くの人々が楽しんでいる姿を見ることができます。,https://code4fukui.github.io/hachioji-keikan100/70-1.jpg,1
71,高尾599ミュージアム,35.630398,139.268702,八王子景観100選No.71,高尾町2435番3,平成27年8月に開館した高尾山の魅力を詰め込んだミュージアムです。施設前の芝生広場は居心地がよく、登山客の休憩場所や近隣の方々の憩いの場として使われています。,https://code4fukui.github.io/hachioji-keikan100/71-1.jpg,1
72,南浅川町の古民家と四季の風景,35.615844,139.257348,八王子景観100選No.72,南浅川町３４２６,山間部の深い緑を活かした風情ある佇まいで四季の移ろいで、様々な表情をみせます。,https://code4fukui.github.io/hachioji-keikan100/72-1.jpg,3
73,高尾山の四季の風景,35.625412,139.24374,八王子景観100選No.73、八王子八十八景No.8,高尾町,"高尾山は長い間植生が守られたため、1,600種以上の植物があり、樹種の違いによる緑の見え方や、芽吹きや紅葉など四季それぞれに多彩な表情がみられます。",https://code4fukui.github.io/hachioji-keikan100/73-1.jpg,5
74,花の名所片倉城跡公園,35.640225,139.337529,八王子景観100選No.74、八王子八十八景No.3、景観重要公共施設,片倉町２４７５,室町時代の片倉城跡と自然を活かした公園で、カタクリやハナショウブなど植物が豊富です。,https://code4fukui.github.io/hachioji-keikan100/74-1.jpg,3
75,栃谷戸公園の棚田と石橋,35.629014,139.318229,八王子景観100選No.75、八王子八十八景No.16,みなみ野５丁目２９,段々畑など里山の風景を再現した公園で、田植えなどの体験学習が行われています。「関東富士見百景」の一つでもあります。,https://code4fukui.github.io/hachioji-keikan100/75-1.jpg,2
76,北野台中央公園の広場,35.628637,139.352327,八王子景観100選No.76,北野台４丁目２０,閑静な住宅地に囲まれた公園で、小高い丘や広場があり地域の人々に親しまれています。,https://code4fukui.github.io/hachioji-keikan100/76-1.jpg,2
77,八王子ニュータウンのまちなみ,35.618235,139.324742,八王子景観100選No.77,みなみ野１丁目他,開発以前の土地や緑など自然環境をうまく活かしながら開発されたまちなみです。,https://code4fukui.github.io/hachioji-keikan100/77-1.jpg,1
78,東京都立大学の四季の風景,35.617246,139.377148,八王子景観100選No.78、八王子八十八景No.73,南大沢１丁目１,東京都立大学のキャンパス内には３つの池があり、建設以前の自然がしのばれます。,https://code4fukui.github.io/hachioji-keikan100/78-1.jpg,4
79,コーシャハイム南大沢五丁目周辺のまちなみ,35.60958,139.367423,八王子景観100選No.79,南大沢５丁目２０,住宅地内の歩行者専用道路の沿道に高木が立ち並び、四季折々に多彩な風景をつくりだしています。,https://code4fukui.github.io/hachioji-keikan100/79-1.jpg,1
80,絹の道周辺の里山風景,35.618383,139.35436,八王子景観100選No.80,鑓水,八王子から横浜に生糸を運ぶルートとして、丘陵地を貫いてつくられた絹の道沿道には、里山の風景がみられます。,https://code4fukui.github.io/hachioji-keikan100/80-1.jpg,2
81,多摩美術大学の図書館,35.611757,139.351285,八王子景観100選No.81,鑓水２丁目１７２３,特徴的な外観は外からも眺めることができ、学園都市八王子の特徴的な景観の一つになっています。,https://code4fukui.github.io/hachioji-keikan100/81-1.jpg,1
82,大学セミナーハウスの建築群,35.630346,139.365551,八王子景観100選No.82、八王子八十八景No.68、東京都選定歴史的建造物,下柚木１９８７ー１,教師と学生の宿泊研修施設で特徴ある建築物が建ち並んでいる。,https://code4fukui.github.io/hachioji-keikan100/82-1.jpg,4
83,多摩ニュータウンライブ長池地区のまちなみ,35.613963,139.389536,八王子景観100選No.83,別所１丁目、別所２丁目,無電柱化、曲線道路、歩道の段差気象などによる景観形成が行われています。,https://code4fukui.github.io/hachioji-keikan100/83-1.jpg,2
84,長池見附橋周辺の風景,35.611758,139.392439,八王子景観100選No.84、八王子八十八景No.28,別所２丁目５８,園内の姿池の水面と長池見附橋のアーチを通して眺める公園の雑木林などが住宅地と自然をつなぐランドマークとして親しまれている。,https://code4fukui.github.io/hachioji-keikan100/84-1.jpg,2
85,ベルコリーヌ南大沢のまちなみ,35.611242,139.371464,八王子景観100選No.85、八王子八十八景No.76,南大沢５丁目９ー１,多摩ニュータウンの中で、まちをつくることを意識してデザインが考えられ地区です。場所ごとに個性を活かしながら統一感のあるまちなみ景観がつくられています。,https://code4fukui.github.io/hachioji-keikan100/85-1.jpg,1
86,リーフィア南大沢のまちなみ,35.608941,139.360546,八王子景観100選No.86,鑓水２丁目,2013年に市内初の景観協定を結んだ住宅地で、美しいまちなみや快適な住環境が守られています。,https://code4fukui.github.io/hachioji-keikan100/86-1.jpg,1
87,堀之内の里山風景,35.634734,139.392392,八王子景観100選No.87,堀之内,多摩ニュータウンが開発された地域は自然や里山の風景が広がっていた場所でその風景を残しています。,https://code4fukui.github.io/hachioji-keikan100/87-1.jpg,1
88,今熊山とミツバツツジ,35.710677,139.215867,八王子景観100選No.88、八王子八十八景No.2,上川町１９,標高505.7ｍの今熊山は、今熊神社を有する歴史のある山で地域のランドマークになっています。春になるとミツバツツジが咲き誇り美しい景観が広がります。,https://code4fukui.github.io/hachioji-keikan100/88-1.jpg,2
89,一丁平のサクラ,35.62643,139.228705,八王子景観100選No.89、八王子八十八景No.1,南浅川町,高尾山から小仏城山へ向かうハイキングコースにあり、四季折々の自然を満喫できます。桜の名所としても有名で、周囲の山からも眺めることができます。,https://code4fukui.github.io/hachioji-keikan100/89-1.jpg,1
90,高尾梅郷,35.638704,139.255984,八王子景観100選No.90、八王子八十八景No.10,裏高尾町３１３,旧甲州街道と小仏川に沿って点在している梅林と梅の木を総称して高尾梅郷と呼ばれています。,https://code4fukui.github.io/hachioji-keikan100/90-1.jpg,1
91,ホーメストタウンのサクラ並木,35.664875,139.273803,八王子景観100選No.91,元八王子町２丁目,ニュータウン開発の一画にあり、生活面やまちの美しさを考慮してつくられた住宅地で、当時の並木も大きく育ち、美しく快適なまちの景観となっています。,https://code4fukui.github.io/hachioji-keikan100/91-1.jpg,1
92,越野の日枝神社のサクラと眺望,35.631463,139.386291,八王子景観100選No.92,越野７５０,小高い丘に位置し、まちを見渡すことができる心地よい場所で、春はサクラが咲き誇る地域の広場です。,https://code4fukui.github.io/hachioji-keikan100/92-1.jpg,1
93,富士見台公園のサクラ,35.625475,139.386003,八王子景観100選No.93,下柚木９０５ー３,多摩ニュータウン計画の一環で整備された公園で、広い芝生広場には一面に桜が植えられ、花見の名所の一つです。,https://code4fukui.github.io/hachioji-keikan100/93-1.jpg,1
94,大光寺のシダレザクラ,35.641179,139.280747,八王子景観100選No.94,初沢町１３５２,多摩八十八ヶ所霊場にあたる大光寺にあるシダレザクラです。,https://code4fukui.github.io/hachioji-keikan100/94-1.jpg,2
95,陵南公園のサクラ,35.648933,139.288024,八王子景観100選No.95,落合南９丁目８ー３３９,園内には多くのサクラが植えられ、春のさくらまつりでは大勢の人で賑わいます。南浅川に沿って咲き誇るサクラは水辺に映え、美しい景観をつくりだします。,https://code4fukui.github.io/hachioji-keikan100/95-1.jpg,3
96,多摩森林科学園のサクラ,35.645959,139.279517,八王子景観100選No.96,廿里町１８３３ー８１,"江戸時代から伝わる栽培品種や国の天然記念物に指定された桜のクローンなど、約1,500本が植えられています",https://code4fukui.github.io/hachioji-keikan100/96-1.jpg,1
97,東京都立大学前のサクラ並木,35.616229,139.378012,八王子景観100選No.97,南大沢１丁目１,南大沢駅から東京都立大学へ向かっていく大学手前に桜並木があります。,https://code4fukui.github.io/hachioji-keikan100/97-1.jpg,1
98,白山神社まちの広場のサクラ,35.629439,139.35886,八王子景観100選No.98,中山８１７,開発に合わせて、白山神社の前に広場がつくられ、神社の参道や広場の周囲には多くのサクラが植えられています。,https://code4fukui.github.io/hachioji-keikan100/98-1.jpg,2
99,裏高尾町のカツラ林,35.638646,139.243039,八王子景観100選No.99,裏高尾町、高尾町,裏高尾町の山林の中にカツラの人工樹林の群生地があります。芽吹きからの新緑、そして黄葉がひときわ色鮮やかです。,https://code4fukui.github.io/hachioji-keikan100/99-1.jpg,1
100,狭間公園のイチョウ,35.640889,139.29061,八王子景観100選No.100,狭間町１４９１ー１,クワの木やイチョウをはじめとする落葉樹が多く植えられています。紅葉の時期は黄葉が美しく、まちなみを彩ります。,https://code4fukui.github.io/hachioji-keikan100/100-1.jpg,2
